GLOBALSTAR M035         
1 25851U 99037A   25072.94569366 -.00000045  00000+0  69144-3 0  9999
2 25851  51.9929 267.3663 0013737 183.2033 350.5065 11.04537446 85734
GLOBALSTAR M032         
1 25852U 99037B   25072.48789439  .00000049  00000+0  37019-2 0  9992
2 25852  51.9931 100.1820 0011252   6.5444 353.5501 11.19062923124078
GLOBALSTAR M051         
1 25853U 99037C   25072.92845679 -.00000055  00000+0  42220-3 0  9990
2 25853  51.9776 270.6957 0001628  68.3399 291.7585 11.42204887121504
GLOBALSTAR M030         
1 25854U 99037D   25072.72278224 -.00000052  00000+0  49223-3 0  9992
2 25854  51.9864  83.3621 0003800 236.6770 123.3683 11.55100200139019
GLOBALSTAR M048         
1 25872U 99041A   25072.84430149 -.00000077  00000+0 -18004-3 0  9997
2 25872  51.9351 202.2427 0013090  23.8867 144.2029 11.33855183114169
GLOBALSTAR M026         
1 25873U 99041B   25072.86294944  .00000053  00000+0  43240-2 0  9992
2 25873  52.0046  26.5078 0001779  97.2767 290.0948 11.06830914137932
GLOBALSTAR M043         
1 25874U 99041C   25072.90610699 -.00000006  00000+0  18432-2 0  9991
2 25874  51.9414 305.9486 0013698 147.0202 302.7617 11.25692084112143
GLOBALSTAR M028         
1 25875U 99041D   25073.12296088  .00000004  00000+0  67130-3 0  9996
2 25875  51.9611 116.5286 0063281 224.6927 134.8824 12.50579496178311
